ONEWEB-0361             
1 49287U 21090J   24042.64257654  .00000094  00000+0  19997-3 0  9993
2 49287  87.9141  84.9322 0001911  99.6478 260.4872 13.20772311117235
ONEWEB-0362             
1 49288U 21090K   24042.75072853  .00000134  00000+0  30148-3 0  9998
2 49288  87.9176 115.4740 0001820  91.8518 268.2823 13.19726841113958
ONEWEB-0363             
1 49289U 21090L   24042.65836145  .00000062  00000+0  12029-3 0  9998
2 49289  87.9142  84.9239 0001831 109.2428 250.8903 13.20772184117246
ONEWEB-0364             
1 49290U 21090M   24042.62048046  .00000060  00000+0  11663-3 0  9993
2 49290  87.9144  84.9549 0002133  95.9738 264.1638 13.20771878118372
ONEWEB-0365             
1 49291U 21090N   24042.76020653  .00000135  00000+0  30430-3 0  9999
2 49291  87.9170 115.4611 0001899  97.7596 262.3753 13.19726083113461
ONEWEB-0366             
1 49292U 21090P   24042.65409767 -.00000140  00000+0 -41298-3 0  9997
2 49292  87.8937 100.2070 0002110 102.6615 257.4751 13.14503537115038
ONEWEB-0367             
1 49293U 21090Q   24042.65678039  .00000022  00000+0  21754-4 0  9991
2 49293  87.9143  84.9186 0002208  96.8201 263.3184 13.20772230116760
ONEWEB-0368             
1 49294U 21090R   24042.62994942  .00000036  00000+0  57014-4 0  9996
2 49294  87.9144  84.9532 0002701 108.6334 251.5093 13.20772020117917
